{
"type": "FeatureCollection",
"name": "고시지역",
"crs": { "type": "name", "properties": { "name": "urn:ogc:def:crs:OGC:1.3:CRS84" } },
"features": [
{ "type": "Feature", "properties": { "Name": "장기지구" }, "geometry": { "type": "Polygon", "coordinates": [ [ [ 128.5244942, 35.8481, 0.0 ], [ 128.524215199999986, 35.847526, 0.0 ], [ 128.5250735, 35.8458215, 0.0 ], [ 128.527691299999987, 35.8427254, 0.0 ], [ 128.528378, 35.8404989, 0.0 ], [ 128.5281205, 35.8371243, 0.0 ], [ 128.5306525, 35.8372287, 0.0 ], [ 128.530824200000012, 35.8493349, 0.0 ], [ 128.5267258, 35.8486392, 0.0 ], [ 128.5244942, 35.8481, 0.0 ] ] ] } },
{ "type": "Feature", "properties": { "Name": "성서지구" }, "geometry": { "type": "Polygon", "coordinates": [ [ [ 128.5204445, 35.8502663, 0.0 ], [ 128.525251, 35.861988, 0.0 ], [ 128.519071200000013, 35.8627879, 0.0 ], [ 128.5142218, 35.8620228, 0.0 ], [ 128.511646899999988, 35.8625792, 0.0 ], [ 128.505123700000013, 35.861988, 0.0 ], [ 128.5013472, 35.861675, 0.0 ], [ 128.4988581, 35.8621271, 0.0 ], [ 128.496712300000013, 35.861188, 0.0 ], [ 128.4922062, 35.861188, 0.0 ], [ 128.4919916, 35.8516229, 0.0 ], [ 128.4929358, 35.8513098, 0.0 ], [ 128.5046946, 35.8520751, 0.0 ], [ 128.517655, 35.8503706, 0.0 ], [ 128.5195004, 35.8505446, 0.0 ], [ 128.5204445, 35.8502663, 0.0 ] ] ] } },
{ "type": "Feature", "properties": { "Name": "대곡지구" }, "geometry": { "type": "Polygon", "coordinates": [ [ [ 128.5253377, 35.8081545, 0.0 ], [ 128.5259814, 35.8072148, 0.0 ], [ 128.526839700000011, 35.8075977, 0.0 ], [ 128.5273118, 35.8070408, 0.0 ], [ 128.52829890000001, 35.8066406, 0.0 ], [ 128.528191600000014, 35.8061185, 0.0 ], [ 128.5296078, 35.8057879, 0.0 ], [ 128.5299296, 35.8057705, 0.0 ], [ 128.5301871, 35.805492, 0.0 ], [ 128.5312171, 35.8056312, 0.0 ], [ 128.531689199999988, 35.8054398, 0.0 ], [ 128.5322256, 35.8045523, 0.0 ], [ 128.5317321, 35.8042564, 0.0 ], [ 128.5318823, 35.8037692, 0.0 ], [ 128.5324402, 35.8036822, 0.0 ], [ 128.5326977, 35.8036125, 0.0 ], [ 128.5331697, 35.8030905, 0.0 ], [ 128.5334272, 35.802638, 0.0 ], [ 128.5344143, 35.8024117, 0.0 ], [ 128.5349507, 35.8023073, 0.0 ], [ 128.5355515, 35.8023595, 0.0 ], [ 128.5356803, 35.8025684, 0.0 ], [ 128.5361524, 35.8029338, 0.0 ], [ 128.5372682, 35.8028642, 0.0 ], [ 128.5378904, 35.8033515, 0.0 ], [ 128.5379977, 35.8040128, 0.0 ], [ 128.539242300000012, 35.8049525, 0.0 ], [ 128.5403581, 35.8043435, 0.0 ], [ 128.541903, 35.8050396, 0.0 ], [ 128.5425897, 35.8057008, 0.0 ], [ 128.5435338, 35.8050048, 0.0 ], [ 128.544714, 35.805231, 0.0 ], [ 128.5466237, 35.8059793, 0.0 ], [ 128.5462804, 35.8067276, 0.0 ], [ 128.545250399999986, 35.8077369, 0.0 ], [ 128.5450358, 35.8082937, 0.0 ], [ 128.542654, 35.8083808, 0.0 ], [ 128.5377617, 35.8098599, 0.0 ], [ 128.5342641, 35.8098425, 0.0 ], [ 128.5294147, 35.8096337, 0.0 ], [ 128.526711, 35.8087462, 0.0 ], [ 128.5253377, 35.8081545, 0.0 ] ] ] } },
{ "type": "Feature", "properties": { "Name": "용산지구" }, "geometry": { "type": "MultiPolygon", "coordinates": [ [ [ [ 128.5233575, 35.8539605, 0.0 ], [ 128.5233325, 35.8539603, 0.0 ], [ 128.523311, 35.8538386, 0.0 ], [ 128.5233575, 35.8539605, 0.0 ] ] ], [ [ [ 128.5233575, 35.8539605, 0.0 ], [ 128.531894099999988, 35.8540299, 0.0 ], [ 128.5314005, 35.8588994, 0.0 ], [ 128.5332459, 35.8588124, 0.0 ], [ 128.5339325, 35.8619601, 0.0 ], [ 128.5326236, 35.8614036, 0.0 ], [ 128.5274523, 35.8616123, 0.0 ], [ 128.5267442, 35.8628296, 0.0 ], [ 128.5233575, 35.8539605, 0.0 ] ] ] ] } },
{ "type": "Feature", "properties": { "Name": "죽곡지구" }, "geometry": { "type": "Polygon", "coordinates": [ [ [ 128.469598, 35.8548783, 0.0 ], [ 128.4702417, 35.8606521, 0.0 ], [ 128.470113, 35.8616607, 0.0 ], [ 128.468954200000013, 35.8636084, 0.0 ], [ 128.4596845, 35.8702857, 0.0 ], [ 128.4598562, 35.8680947, 0.0 ], [ 128.4590408, 35.8672253, 0.0 ], [ 128.459942, 35.8647213, 0.0 ], [ 128.4625599, 35.8648604, 0.0 ], [ 128.4631607, 35.8655907, 0.0 ], [ 128.4646198, 35.8656255, 0.0 ], [ 128.464276500000011, 35.8636779, 0.0 ], [ 128.4635898, 35.8631214, 0.0 ], [ 128.46367570000001, 35.8624954, 0.0 ], [ 128.4643194, 35.8616955, 0.0 ], [ 128.4632465, 35.859713, 0.0 ], [ 128.469598, 35.8548783, 0.0 ] ] ] } }
]
}
